{"type": "FeatureCollection", "features": [ {"type": "Feature", "properties": {"norad_id": 40701, "name": "GAOFEN-8", "group": "resource", "lat": 76.16761652223414, "lon": 138.052590616749, "alt_km": 436.32793729385685, "timestamp": "2025-12-18T21:31:50.639346+00:00", "meta": {"OBJECT_NAME": "GAOFEN-8", "OBJECT_ID": "2015-030A", "EPOCH": "2025-12-18T07:08:40.320960", "MEAN_MOTION": 15.38725697, "ECCENTRICITY": 0.00118824, "INCLINATION": 97.6902, "RA_OF_ASC_NODE": 170.7087, "ARG_OF_PERICENTER": 119.575, "MEAN_ANOMALY": 240.6681, "EPHEMERIS_TYPE": 0, "CLASSIFICATION_TYPE": "U", "NORAD_CAT_ID": 40701, "ELEMENT_SET_NO": 999, "REV_AT_EPOCH": 58356, "BSTAR": 0.00029890381, "MEAN_MOTION_DOT": 0.00011381, "MEAN_MOTION_DDOT": 0}, "tle": {"line1": "1 40701U 15030A   25352.29768890  .00011381  00000+0  29890-3 0  9991", "line2": "2 40701  97.6902 170.7087 0011882 119.5750 240.6681 15.38725697583562"}}, "geometry": {"type": "Point", "coordinates": [138.052590616749, 76.16761652223414]}}, {"type": "Feature", "properties": {"norad_id": 40718, "name": "CARBONITE 1 (CBNT-1)", "group": "resource", "lat": -32.710362426405844, "lon": -11.276138918042369, "alt_km": 620.287511087251, "timestamp": "2025-12-18T21:31:50.639357+00:00", "meta": {"OBJECT_NAME": "CARBONITE 1 (CBNT-1)", "OBJECT_ID": "2015-032D", "EPOCH": "2025-12-18T07:37:02.730144", "MEAN_MOTION": 14.82767543, "ECCENTRICITY": 0.00148234, "INCLINATION": 97.6395, "RA_OF_ASC_NODE": 173.1151, "ARG_OF_PERICENTER": 163.3354, "MEAN_ANOMALY": 196.835, "EPHEMERIS_TYPE": 0, "CLASSIFICATION_TYPE": "U", "NORAD_CAT_ID": 40718, "ELEMENT_SET_NO": 999, "REV_AT_EPOCH": 56253, "BSTAR": 0.00016634945, "MEAN_MOTION_DOT": 1.296e-05, "MEAN_MOTION_DDOT": 0}, "tle": {"line1": "1 40718U 15032D   25352.31739271  .00001296  00000+0  16635-3 0  9992", "line2": "2 40718  97.6395 173.1151 0014823 163.3354 196.8350 14.82767543562533"}}, "geometry": {"type": "Point", "coordinates": [-11.276138918042369, -32.710362426405844]}}, {"type": "Feature", "properties": {"norad_id": 40878, "name": "YAOGAN-27", "group": "resource", "lat": -1.9223904049680043, "lon": 161.8958594886158, "alt_km": 1202.7399273423616, "timestamp": "2025-12-18T21:31:50.639367+00:00", "meta": {"OBJECT_NAME": "YAOGAN-27", "OBJECT_ID": "2015-040A", "EPOCH": "2025-12-18T06:00:45.936288", "MEAN_MOTION": 13.16062418, "ECCENTRICITY": 0.00075637, "INCLINATION": 100.1007, "RA_OF_ASC_NODE": 341.6214, "ARG_OF_PERICENTER": 273.0945, "MEAN_ANOMALY": 86.9304, "EPHEMERIS_TYPE": 0, "CLASSIFICATION_TYPE": "U", "NORAD_CAT_ID": 40878, "ELEMENT_SET_NO": 999, "REV_AT_EPOCH": 49386, "BSTAR": 0.0011155455, "MEAN_MOTION_DOT": 3.81e-06, "MEAN_MOTION_DDOT": 0}, "tle": {"line1": "1 40878U 15040A   25352.25053167  .00000381  00000+0  11155-2 0  9999", "line2": "2 40878 100.1007 341.6214 0007563 273.0945  86.9304 13.16062418493862"}}, "geometry": {"type": "Point", "coordinates": [161.8958594886158, -1.9223904049680043]}}, {"type": "Feature", "properties": {"norad_id": 40894, "name": "GAOFEN-9 01", "group": "resource", "lat": 52.6177803996611, "lon": -138.2769082722122, "alt_km": 624.0604192003475, "timestamp": "2025-12-18T21:31:50.639378+00:00", "meta": {"OBJECT_NAME": "GAOFEN-9 01", "OBJECT_ID": "2015-047A", "EPOCH": "2025-12-18T06:23:01.038336", "MEAN_MOTION": 14.82436005, "ECCENTRICITY": 0.00279564, "INCLINATION": 97.6536, "RA_OF_ASC_NODE": 30.9827, "ARG_OF_PERICENTER": 16.6099, "MEAN_ANOMALY": 343.6024, "EPHEMERIS_TYPE": 0, "CLASSIFICATION_TYPE": "U", "NORAD_CAT_ID": 40894, "ELEMENT_SET_NO": 999, "REV_AT_EPOCH": 55338, "BSTAR": 0.00012291915, "MEAN_MOTION_DOT": 9.41e-06, "MEAN_MOTION_DDOT": 0}, "tle": {"line1": "1 40894U 15047A   25352.26598424  .00000941  00000+0  12292-3 0  9991", "line2": "2 40894  97.6536  30.9827 0027956  16.6099 343.6024 14.82436005553381"}}, "geometry": {"type": "Point", "coordinates": [-138.2769082722122, 52.6177803996611]}}, {"type": "Feature", "properties": {"norad_id": 41026, "name": "YAOGAN-28", "group": "resource", "lat": 52.62411274010749, "lon": -39.84984105930003, "alt_km": 479.46976203869144, "timestamp": "2025-12-18T21:31:50.639388+00:00", "meta": {"OBJECT_NAME": "YAOGAN-28", "OBJECT_ID": "2015-064A", "EPOCH": "2025-12-18T08:22:29.502912", "MEAN_MOTION": 15.24444593, "ECCENTRICITY": 0.00125725, "INCLINATION": 97.2806, "RA_OF_ASC_NODE": 129.9829, "ARG_OF_PERICENTER": 108.1318, "MEAN_ANOMALY": 252.129, "EPHEMERIS_TYPE": 0, "CLASSIFICATION_TYPE": "U", "NORAD_CAT_ID": 41026, "ELEMENT_SET_NO": 999, "REV_AT_EPOCH": 56310, "BSTAR": 0.00029809357, "MEAN_MOTION_DOT": 7.263e-05, "MEAN_MOTION_DDOT": 0}, "tle": {"line1": "1 41026U 15064A   25352.34895258  .00007263  00000+0  29809-3 0  9998", "line2": "2 41026  97.2806 129.9829 0012572 108.1318 252.1290 15.24444593563103"}}, "geometry": {"type": "Point", "coordinates": [-39.84984105930003, 52.62411274010749]}}, {"type": "Feature", "properties": {"norad_id": 41038, "name": "YAOGAN-29", "group": "resource", "lat": 24.07341540084056, "lon": 12.476913058341573, "alt_km": 619.917520784602, "timestamp": "2025-12-18T21:31:50.639398+00:00", "meta": {"OBJECT_NAME": "YAOGAN-29", "OBJECT_ID": "2015-069A", "EPOCH": "2025-12-18T06:50:46.733568", "MEAN_MOTION": 14.8288738, "ECCENTRICITY": 3.55e-05, "INCLINATION": 98.0216, "RA_OF_ASC_NODE": 15.4753, "ARG_OF_PERICENTER": 198.4026, "MEAN_ANOMALY": 161.7174, "EPHEMERIS_TYPE": 0, "CLASSIFICATION_TYPE": "U", "NORAD_CAT_ID": 41038, "ELEMENT_SET_NO": 999, "REV_AT_EPOCH": 54381, "BSTAR": 3.0568399e-05, "MEAN_MOTION_DOT": 1.94e-06, "MEAN_MOTION_DDOT": 0}, "tle": {"line1": "1 41038U 15069A   25352.28526312  .00000194  00000+0  30568-4 0  9992", "line2": "2 41038  98.0216  15.4753 0000355 198.4026 161.7174 14.82887380543819"}}, "geometry": {"type": "Point", "coordinates": [12.476913058341573, 24.07341540084056]}}, {"type": "Feature", "properties": {"norad_id": 41167, "name": "KENT RIDGE 1", "group": "resource", "lat": 6.6848412135057895, "lon": -40.54368581080572, "alt_km": 494.5943756869465, "timestamp": "2025-12-18T21:31:50.639408+00:00", "meta": {"OBJECT_NAME": "KENT RIDGE 1", "OBJECT_ID": "2015-077B", "EPOCH": "2025-12-18T03:33:21.939840", "MEAN_MOTION": 15.21678305, "ECCENTRICITY": 0.00085022, "INCLINATION": 14.978, "RA_OF_ASC_NODE": 171.0083, "ARG_OF_PERICENTER": 207.427, "MEAN_ANOMALY": 152.5603, "EPHEMERIS_TYPE": 0, "CLASSIFICATION_TYPE": "U", "NORAD_CAT_ID": 41167, "ELEMENT_SET_NO": 999, "REV_AT_EPOCH": 55346, "BSTAR": 0.00014125959, "MEAN_MOTION_DOT": 4.046e-05, "MEAN_MOTION_DDOT": 0}, "tle": {"line1": "1 41167U 15077B   25352.14817060  .00004046  00000+0  14126-3 0  9993", "line2": "2 41167  14.9780 171.0083 0008502 207.4270 152.5603 15.21678305553460"}}, "geometry": {"type": "Point", "coordinates": [-40.54368581080572, 6.6848412135057895]}}, {"type": "Feature", "properties": {"norad_id": 41194, "name": "GAOFEN-4", "group": "resource", "lat": 0.1830823930350504, "lon": 156.40106786224095, "alt_km": 35774.02608234686, "timestamp": "2025-12-18T21:31:50.639421+00:00", "meta": {"OBJECT_NAME": "GAOFEN-4", "OBJECT_ID": "2015-083A", "EPOCH": "2025-12-18T06:57:01.880640", "MEAN_MOTION": 1.0027381, "ECCENTRICITY": 0.00029226, "INCLINATION": 0.1844, "RA_OF_ASC_NODE": 81.7336, "ARG_OF_PERICENTER": 94.1299, "MEAN_ANOMALY": 121.2536, "EPHEMERIS_TYPE": 0, "CLASSIFICATION_TYPE": "U", "NORAD_CAT_ID": 41194, "ELEMENT_SET_NO": 999, "REV_AT_EPOCH": 3671, "BSTAR": 0, "MEAN_MOTION_DOT": -3.1e-06, "MEAN_MOTION_DDOT": 0}, "tle": {"line1": "1 41194U 15083A   25352.28960510 -.00000310  00000+0  00000+0 0  9997", "line2": "2 41194   0.1844  81.7336 0002922  94.1299 121.2536  1.00273810 36714"}}, "geometry": {"type": "Point", "coordinates": [156.40106786224095, 0.1830823930350504]}}, {"type": "Feature", "properties": {"norad_id": 41240, "name": "JASON-3", "group": "resource", "lat": 45.152425016065656, "lon": 171.43189606289104, "alt_km": 1310.3734855875691, "timestamp": "2025-12-18T21:31:50.639432+00:00", "meta": {"OBJECT_NAME": "JASON-3", "OBJECT_ID": "2016-002A", "EPOCH": "2025-12-18T06:21:16.832160", "MEAN_MOTION": 12.87626819, "ECCENTRICITY": 0.00071927, "INCLINATION": 66.0396, "RA_OF_ASC_NODE": 146.2083, "ARG_OF_PERICENTER": 271.1486, "MEAN_ANOMALY": 88.8709, "EPHEMERIS_TYPE": 0, "CLASSIFICATION_TYPE": "U", "NORAD_CAT_ID": 41240, "ELEMENT_SET_NO": 999, "REV_AT_EPOCH": 46395, "BSTAR": 7.0904595e-05, "MEAN_MOTION_DOT": -4.4e-07, "MEAN_MOTION_DDOT": 0}, "tle": {"line1": "1 41240U 16002A   25352.26477815 -.00000044  00000+0  70905-4 0  9990", "line2": "2 41240  66.0396 146.2083 0007192 271.1486  88.8709 12.87626819463952"}}, "geometry": {"type": "Point", "coordinates": [171.43189606289104, 45.152425016065656]}}, {"type": "Feature", "properties": {"norad_id": 41335, "name": "SENTINEL-3A", "group": "resource", "lat": -76.12120074391788, "lon": 95.75451407061661, "alt_km": 810.6237412490964, "timestamp": "2025-12-18T21:31:50.639443+00:00", "meta": {"OBJECT_NAME": "SENTINEL-3A", "OBJECT_ID": "2016-011A", "EPOCH": "2025-12-18T06:45:10.473408", "MEAN_MOTION": 14.26732845, "ECCENTRICITY": 9.128e-05, "INCLINATION": 98.6309, "RA_OF_ASC_NODE": 57.2163, "ARG_OF_PERICENTER": 92.765, "MEAN_ANOMALY": 267.3635, "EPHEMERIS_TYPE": 0, "CLASSIFICATION_TYPE": "U", "NORAD_CAT_ID": 41335, "ELEMENT_SET_NO": 999, "REV_AT_EPOCH": 51226, "BSTAR": 6.5786303e-05, "MEAN_MOTION_DOT": 1.15e-06, "MEAN_MOTION_DDOT": 0}, "tle": {"line1": "1 41335U 16011A   25352.28137122  .00000115  00000+0  65786-4 0  9990", "line2": "2 41335  98.6309  57.2163 0000912  92.7650 267.3635 14.26732845512268"}}, "geometry": {"type": "Point", "coordinates": [95.75451407061661, -76.12120074391788]}}]}